{
  "type": "FeatureCollection",
  "features": [
    {
      "type": "Feature",
      "properties": {
        "norad_id": 22675,
        "name": "COSMOS 2251",
        "group": "cosmos-2251-debris",
        "lat": 45.56503892460381,
        "lon": 94.11538215863075,
        "alt_km": 786.0563865578915,
        "timestamp": "2025-12-26T07:29:18.846832+00:00",
        "meta_object_name": "COSMOS 2251",
        "meta_object_id": "1993-036A",
        "meta_epoch": "2025-12-25T20:49:29.768160",
        "meta_mean_motion": 14.33208771,
        "meta_eccentricity": 0.00244876,
        "meta_inclination": 74.04,
        "meta_ra_of_asc_node": 291.8971,
        "meta_arg_of_pericenter": 10.6142,
        "meta_mean_anomaly": 349.5521,
        "meta_ephemeris_type": 0,
        "meta_classification_type": "U",
        "meta_norad_cat_id": 22675,
        "meta_element_set_no": 999,
        "meta_rev_at_epoch": 69961,
        "meta_bstar": 6.230369e-05,
        "meta_mean_motion_dot": 1.46e-06,
        "meta_mean_motion_ddot": 0,
        "tle_line1": "1 22675U 93036A   25359.86770565  .00000146  00000+0  62304-4 0  9990",
        "tle_line2": "2 22675  74.0400 291.8971 0024487  10.6142 349.5521 14.33208771699611"
      },
      "geometry": {
        "type": "Point",
        "coordinates": [
          94.11538215863075,
          45.56503892460381
        ]
      }
    },
    {
      "type": "Feature",
      "properties": {
        "norad_id": 33757,
        "name": "COSMOS 2251 DEB",
        "group": "cosmos-2251-debris",
        "lat": 38.04170635683676,
        "lon": 105.89155321221546,
        "alt_km": 790.9843637878166,
        "timestamp": "2025-12-26T07:29:18.846857+00:00",
        "meta_object_name": "COSMOS 2251 DEB",
        "meta_object_id": "1993-036E",
        "meta_epoch": "2025-12-25T21:05:13.970688",
        "meta_mean_motion": 14.32584381,
        "meta_eccentricity": 0.00156645,
        "meta_inclination": 74.0376,
        "meta_ra_of_asc_node": 299.6238,
        "meta_arg_of_pericenter": 310.94,
        "meta_mean_anomaly": 114.917,
        "meta_ephemeris_type": 0,
        "meta_classification_type": "U",
        "meta_norad_cat_id": 33757,
        "meta_element_set_no": 999,
        "meta_rev_at_epoch": 88184,
        "meta_bstar": 5.2651677e-05,
        "meta_mean_motion_dot": 1.17e-06,
        "meta_mean_motion_ddot": 0,
        "tle_line1": "1 33757U 93036E   25359.87863392  .00000117  00000+0  52652-4 0  9998",
        "tle_line2": "2 33757  74.0376 299.6238 0015664 310.9400 114.9170 14.32584381881843"
      },
      "geometry": {
        "type": "Point",
        "coordinates": [
          105.89155321221546,
          38.04170635683676
        ]
      }
    },
    {
      "type": "Feature",
      "properties": {
        "norad_id": 33758,
        "name": "COSMOS 2251 DEB",
        "group": "cosmos-2251-debris",
        "lat": -60.14618481341755,
        "lon": 159.52779436140102,
        "alt_km": 717.7438027741773,
        "timestamp": "2025-12-26T07:29:18.846872+00:00",
        "meta_object_name": "COSMOS 2251 DEB",
        "meta_object_id": "1993-036F",
        "meta_epoch": "2025-12-25T22:25:36.429888",
        "meta_mean_motion": 14.51669533,
        "meta_eccentricity": 0.00170789,
        "meta_inclination": 74.0267,
        "meta_ra_of_asc_node": 190.1757,
        "meta_arg_of_pericenter": 255.9995,
        "meta_mean_anomaly": 227.079,
        "meta_ephemeris_type": 0,
        "meta_classification_type": "U",
        "meta_norad_cat_id": 33758,
        "meta_element_set_no": 999,
        "meta_rev_at_epoch": 88496,
        "meta_bstar": 0.00077681591,
        "meta_mean_motion_dot": 3.095e-05,
        "meta_mean_motion_ddot": 0,
        "tle_line1": "1 33758U 93036F   25359.93444942  .00003095  00000+0  77682-3 0  9999",
        "tle_line2": "2 33758  74.0267 190.1757 0017078 255.9995 227.0790 14.51669533884966"
      },
      "geometry": {
        "type": "Point",
        "coordinates": [
          159.52779436140102,
          -60.14618481341755
        ]
      }
    },
    {
      "type": "Feature",
      "properties": {
        "norad_id": 33760,
        "name": "COSMOS 2251 DEB",
        "group": "cosmos-2251-debris",
        "lat": 1.4385830520393283,
        "lon": 76.13631960265313,
        "alt_km": 789.7585271052521,
        "timestamp": "2025-12-26T07:29:18.846884+00:00",
        "meta_object_name": "COSMOS 2251 DEB",
        "meta_object_id": "1993-036H",
        "meta_epoch": "2025-12-25T20:58:10.368768",
        "meta_mean_motion": 14.35681172,
        "meta_eccentricity": 0.00204615,
        "meta_inclination": 74.0318,
        "meta_ra_of_asc_node": 257.3524,
        "meta_arg_of_pericenter": 352.6469,
        "meta_mean_anomaly": 81.3851,
        "meta_ephemeris_type": 0,
        "meta_classification_type": "U",
        "meta_norad_cat_id": 33760,
        "meta_element_set_no": 999,
        "meta_rev_at_epoch": 88313,
        "meta_bstar": 0.00010604777,
        "meta_mean_motion_dot": 2.81e-06,
        "meta_mean_motion_ddot": 0,
        "tle_line1": "1 33760U 93036H   25359.87373112  .00000281  00000+0  10605-3 0  9991",
        "tle_line2": "2 33760  74.0318 257.3524 0020461 352.6469  81.3851 14.35681172883137"
      },
      "geometry": {
        "type": "Point",
        "coordinates": [
          76.13631960265313,
          1.4385830520393283
        ]
      }
    },
    {
      "type": "Feature",
      "properties": {
        "norad_id": 33761,
        "name": "COSMOS 2251 DEB",
        "group": "cosmos-2251-debris",
        "lat": 72.797849104226,
        "lon": -65.3973088982612,
        "alt_km": 755.032362523305,
        "timestamp": "2025-12-26T07:29:18.846895+00:00",
        "meta_object_name": "COSMOS 2251 DEB",
        "meta_object_id": "1993-036J",
        "meta_epoch": "2025-12-25T18:07:22.971936",
        "meta_mean_motion": 14.42579332,
        "meta_eccentricity": 0.00233359,
        "meta_inclination": 74.0347,
        "meta_ra_of_asc_node": 228.0146,
        "meta_arg_of_pericenter": 306.4885,
        "meta_mean_anomaly": 125.9248,
        "meta_ephemeris_type": 0,
        "meta_classification_type": "U",
        "meta_norad_cat_id": 33761,
        "meta_element_set_no": 999,
        "meta_rev_at_epoch": 88422,
        "meta_bstar": 0.00036902596,
        "meta_mean_motion_dot": 1.202e-05,
        "meta_mean_motion_ddot": 0,
        "tle_line1": "1 33761U 93036J   25359.75512699  .00001202  00000+0  36903-3 0  9997",
        "tle_line2": "2 33761  74.0347 228.0146 0023335 306.4885 125.9248 14.42579332884225"
      },
      "geometry": {
        "type": "Point",
        "coordinates": [
          -65.3973088982612,
          72.797849104226
        ]
      }
    },
    {
      "type": "Feature",
      "properties": {
        "norad_id": 33762,
        "name": "COSMOS 2251 DEB",
        "group": "cosmos-2251-debris",
        "lat": 17.432652201689276,
        "lon": -69.63116747748634,
        "alt_km": 770.4493871765699,
        "timestamp": "2025-12-26T07:29:18.846906+00:00",
        "meta_object_name": "COSMOS 2251 DEB",
        "meta_object_id": "1993-036K",
        "meta_epoch": "2025-12-25T21:38:52.736928",
        "meta_mean_motion": 14.33667787,
        "meta_eccentricity": 0.00155213,
        "meta_inclination": 74.0423,
        "meta_ra_of_asc_node": 285.9633,
        "meta_arg_of_pericenter": 344.3979,
        "meta_mean_anomaly": 78.3929,
        "meta_ephemeris_type": 0,
        "meta_classification_type": "U",
        "meta_norad_cat_id": 33762,
        "meta_element_set_no": 999,
        "meta_rev_at_epoch": 88236,
        "meta_bstar": 5.6167703e-05,
        "meta_mean_motion_dot": 1.3e-06,
        "meta_mean_motion_ddot": 0,
        "tle_line1": "1 33762U 93036K   25359.90199927  .00000130  00000+0  56168-4 0  9995",
        "tle_line2": "2 33762  74.0423 285.9633 0015521 344.3979  78.3929 14.33667787882369"
      },
      "geometry": {
        "type": "Point",
        "coordinates": [
          -69.63116747748634,
          17.432652201689276
        ]
      }
    },
    {
      "type": "Feature",
      "properties": {
        "norad_id": 33764,
        "name": "COSMOS 2251 DEB",
        "group": "cosmos-2251-debris",
        "lat": 72.86567786317632,
        "lon": -44.17367216255562,
        "alt_km": 762.6703634795649,
        "timestamp": "2025-12-26T07:29:18.846917+00:00",
        "meta_object_name": "COSMOS 2251 DEB",
        "meta_object_id": "1993-036M",
        "meta_epoch": "2025-12-25T21:27:51.547104",
        "meta_mean_motion": 14.39535706,
        "meta_eccentricity": 0.00233402,
        "meta_inclination": 74.0329,
        "meta_ra_of_asc_node": 248.3667,
        "meta_arg_of_pericenter": 211.5386,
        "meta_mean_anomaly": 228.7467,
        "meta_ephemeris_type": 0,
        "meta_classification_type": "U",
        "meta_norad_cat_id": 33764,
        "meta_element_set_no": 999,
        "meta_rev_at_epoch": 88346,
        "meta_bstar": 0.00027569822,
        "meta_mean_motion_dot": 8.36e-06,
        "meta_mean_motion_ddot": 0,
        "tle_line1": "1 33764U 93036M   25359.89434661  .00000836  00000+0  27570-3 0  9999",
        "tle_line2": "2 33764  74.0329 248.3667 0023340 211.5386 228.7467 14.39535706883462"
      },
      "geometry": {
        "type": "Point",
        "coordinates": [
          -44.17367216255562,
          72.86567786317632
        ]
      }
    }
  ]
}